[{"OBJECT_NAME":"HULIANWANG JISHU SHIYAN 4B","OBJECT_ID":"2023-212B","EPOCH":"2026-03-09T21:54:26.285472","MEAN_MOTION":13.41451244,"ECCENTRICITY":5.706e-5,"INCLINATION":49.9995,"RA_OF_ASC_NODE":347.8305,"ARG_OF_PERICENTER":162.1105,"MEAN_ANOMALY":197.9792,"EPHEMERIS_TYPE":0,"CLASSIFICATION_TYPE":"U","NORAD_CAT_ID":58692,"ELEMENT_SET_NO":999,"REV_AT_EPOCH":10792,"BSTAR":8.9569784e-5,"MEAN_MOTION_DOT":-7.8e-7,"MEAN_MOTION_DDOT":0},{"OBJECT_NAME":"SL-14 DEB","OBJECT_ID":"1991-056DS","EPOCH":"2026-03-08T12:41:33.192960","MEAN_MOTION":13.41759082,"ECCENTRICITY":0.00941963,"INCLINATION":82.568,"RA_OF_ASC_NODE":154.0783,"ARG_OF_PERICENTER":105.6958,"MEAN_ANOMALY":255.4595,"EPHEMERIS_TYPE":0,"CLASSIFICATION_TYPE":"U","NORAD_CAT_ID":47092,"ELEMENT_SET_NO":999,"REV_AT_EPOCH":26083,"BSTAR":0.0020642066,"MEAN_MOTION_DOT":1.198e-5,"MEAN_MOTION_DDOT":0}]
